NORAD_CAT_ID,OBJECT_NAME,OBJECT_TYPE,EPOCH,MEAN_MOTION,ECCENTRICITY,INCLINATION,RA_OF_ASC_NODE,ARG_OF_PERICENTER,MEAN_ANOMALY,BSTAR,MEAN_MOTION_DOT,MEAN_MOTION_DDOT,TLE_LINE0,TLE_LINE1,TLE_LINE2,SEMIMAJOR_AXIS,PERIOD,APOGEE,PERIGEE,DECAYED
53821.0,STARLINK-4752,PAYLOAD,2024-01-23 11:21:12,15.08832194,0.0001287,53.2168,133.5044,83.7484,276.3655,-2.7872e-05,-7.31e-06,0.0,0 STARLINK-4752,1 53821U 22114D   24023.47306683 -.00000731  00000-0 -27872-4 0  9990,2 53821  53.2168 133.5044 0001287  83.7484 276.3655 15.08832194 75881,6917.904,95.438,540.66,538.879,0.0
53821.0,STARLINK-4752,PAYLOAD,2024-01-23 14:31:59,15.08833327,0.0001296,53.2168,132.9096,84.0888,276.0252,-1.6988e-05,-5.58e-06,0.0,0 STARLINK-4752,1 53821U 22114D   24023.60554634 -.00000558  00000-0 -16988-4 0  9999,2 53821  53.2168 132.9096 0001296  84.0888 276.0252 15.08833327 76445,6917.901,95.438,540.662,538.869,0.0
53821.0,STARLINK-4752,PAYLOAD,2024-01-24 11:11:59,15.08838282,0.0001304,53.2166,129.0437,90.0755,270.0386,2.6306e-05,1.31e-06,0.0,0 STARLINK-4752,1 53821U 22114D   24024.46666295  .00000131  00000-0  26306-4 0  9991,2 53821  53.2166 129.0437 0001304  90.0755 270.0386 15.08838282 76031,6917.886,95.438,540.653,538.849,0.0
53821.0,STARLINK-4752,PAYLOAD,2024-01-24 14:22:45,15.08839556,0.0001311,53.2166,128.4491,86.7981,273.3161,3.6745e-05,2.97e-06,0.0,0 STARLINK-4752,1 53821U 22114D   24024.59914211  .00000297  00000-0  36745-4 0  9990,2 53821  53.2166 128.4491 0001311  86.7981 273.3161 15.08839556 76598,6917.882,95.438,540.654,538.84,0.0
53821.0,STARLINK-4752,PAYLOAD,2024-01-25 14:13:33,15.08835908,0.0001462,53.2176,123.9852,76.5883,283.5272,1.2028e-05,-9.7e-07,0.0,0 STARLINK-4752,1 53821U 22114D   24025.59274782 -.00000097  00000-0  12028-4 0  9990,2 53821  53.2176 123.9852 0001462  76.5883 283.5272 15.08835908 76745,6917.893,95.438,540.769,538.747,0.0
53821.0,STARLINK-4752,PAYLOAD,2024-01-26 10:53:33,15.0884176,0.0001611,53.2182,120.1216,68.1622,291.9541,2.6832e-05,1.39e-06,0.0,0 STARLINK-4752,1 53821U 22114D   24026.45386427  .00000139  00000-0  26832-4 0  9990,2 53821  53.2182 120.1216 0001611  68.1622 291.9541 15.08841760 76878,6917.875,95.437,540.854,538.626,0.0
53821.0,STARLINK-4752,PAYLOAD,2024-01-27 12:19:43,15.08841445,0.0001379,53.2173,115.3654,75.6065,284.508,1.1639e-05,-1.03e-06,0.0,0 STARLINK-4752,1 53821U 22114D   24027.51370326 -.00000103  00000-0  11639-4 0  9990,2 53821  53.2173 115.3654 0001379  75.6065 284.5080 15.08841445 76499,6917.876,95.437,540.695,538.787,0.0
53821.0,STARLINK-4752,PAYLOAD,2024-01-28 12:10:31,15.08837798,0.0001494,53.2181,110.9055,95.058,265.0583,-2.5088e-05,-6.87e-06,0.0,0 STARLINK-4752,1 53821U 22114D   24028.50730587 -.00000687  00000-0 -25088-4 0  9990,2 53821  53.2181 110.9055 0001494  95.0580 265.0583 15.08837798 77185,6917.887,95.438,540.786,538.719,0.0
53821.0,STARLINK-4752,PAYLOAD,2024-01-29 10:25:55,15.08836725,0.0001509,53.2182,106.7427,95.2003,264.9162,1.3056e-06,-2.67e-06,0.0,0 STARLINK-4752,1 53821U 22114D   24029.43466643 -.00000267  00000-0  13056-5 0  9998,2 53821  53.2182 106.7427 0001509  95.2003 264.9162 15.08836725 77327,6917.89,95.438,540.799,538.711,0.0
53821.0,STARLINK-4752,PAYLOAD,2024-01-30 11:52:06,15.08828119,0.0001428,53.2181,101.9855,93.25,266.8655,-4.6192e-05,-1.023e-05,0.0,0 STARLINK-4752,1 53821U 22114D   24030.49451724 -.00001023  00000-0 -46192-4 0  9998,2 53821  53.2181 101.9855 0001428  93.2500 266.8655 15.08828119 76941,6917.917,95.438,540.77,538.794,0.0
53821.0,STARLINK-4752,PAYLOAD,2024-01-31 08:32:07,15.08832547,0.0001321,53.2177,98.121,90.1952,269.9192,-1.1455e-05,-4.7e-06,0.0,0 STARLINK-4752,1 53821U 22114D   24031.35563780 -.00000470  00000-0 -11455-4 0  9999,2 53821  53.2177  98.1210 0001321  90.1952 269.9192 15.08832547 77072,6917.903,95.438,540.682,538.854,0.0
53821.0,STARLINK-4752,PAYLOAD,2024-01-31 13:18:16,15.08834284,0.0001333,53.2174,97.2257,83.1451,276.9693,-1.6337e-06,-3.14e-06,0.0,0 STARLINK-4752,1 53821U 22114D   24031.55435719 -.00000314  00000-0 -16337-5 0  9993,2 53821  53.2174  97.2257 0001333  83.1451 276.9693 15.08834284 77646,6917.898,95.438,540.685,538.841,0.0
53821.0,STARLINK-4752,PAYLOAD,2024-02-01 09:58:17,15.08834918,0.0001341,53.2178,93.3603,82.9677,277.1468,7.3141e-05,8.76e-06,0.0,0 STARLINK-4752,1 53821U 22114D   24032.41547648  .00000876  00000-0  73141-4 0  9990,2 53821  53.2178  93.3603 0001341  82.9677 277.1468 15.08834918 77230,6917.896,95.438,540.689,538.833,0.0
53821.0,STARLINK-4752,PAYLOAD,2024-02-01 13:09:03,15.08835524,0.0001347,53.2178,92.7651,83.3511,276.7635,7.4967e-05,9.05e-06,0.0,0 STARLINK-4752,1 53821U 22114D   24032.54795634  .00000905  00000-0  74967-4 0  9994,2 53821  53.2178  92.7651 0001347  83.3511 276.7635 15.08835524 77790,6917.894,95.438,540.691,538.827,0.0
53821.0,STARLINK-4752,PAYLOAD,2024-02-02 09:49:03,15.08844519,0.0001377,53.2181,88.8986,83.9042,276.2107,6.2648e-05,7.09e-06,0.0,0 STARLINK-4752,1 53821U 22114D   24033.40907045  .00000709  00000-0  62648-4 0  9996,2 53821  53.2181  88.8986 0001377  83.9042 276.2107 15.08844519 77387,6917.867,95.437,540.684,538.779,0.0
53821.0,STARLINK-4752,PAYLOAD,2024-02-02 12:59:49,15.08844983,0.0001394,53.2182,88.3036,84.1604,275.9547,6.4467e-05,7.38e-06,0.0,0 STARLINK-4752,1 53821U 22114D   24033.54154959  .00000738  00000-0  64467-4 0  9992,2 53821  53.2182  88.3036 0001394  84.1604 275.9547 15.08844983 77946,6917.865,95.437,540.695,538.766,0.0
53821.0,STARLINK-4752,PAYLOAD,2024-02-03 09:39:50,15.0884165,0.000134,53.2168,84.4384,89.9525,270.162,-2.5618e-05,-6.96e-06,0.0,0 STARLINK-4752,1 53821U 22114D   24034.40267281 -.00000696  00000-0 -25618-4 0  9991,2 53821  53.2168  84.4384 0001340  89.9525 270.1620 15.08841650 78071,6917.875,95.437,540.667,538.813,0.0
53821.0,STARLINK-4752,PAYLOAD,2024-02-04 12:41:24,15.08840706,0.0001511,53.2181,79.3838,103.0155,257.1006,-2.9474e-05,-7.57e-06,0.0,0 STARLINK-4752,1 53821U 22114D   24035.52875119 -.00000757  00000-0 -29474-4 0  9992,2 53821  53.2181  79.3838 0001511 103.0155 257.1006 15.08840706 78243,6917.878,95.438,540.789,538.698,0.0
53821.0,STARLINK-4752,PAYLOAD,2024-02-05 09:21:25,15.0883703,0.0001327,53.2172,75.5184,86.4698,273.6446,1.0704e-06,-2.71e-06,0.0,0 STARLINK-4752,1 53821U 22114D   24036.38987324 -.00000271  00000-0  10704-5 0  9996,2 53821  53.2172  75.5184 0001327  86.4698 273.6446 15.08837030 78377,6917.889,95.438,540.672,538.836,0.0
53821.0,STARLINK-4752,PAYLOAD,2024-02-06 02:50:39,15.0883649,0.0001343,53.2173,72.247,85.5931,274.5215,-3.9277e-06,-3.5e-06,0.0,0 STARLINK-4752,1 53821U 22114D   24037.11851481 -.00000350  00000-0 -39277-5 0  9997,2 53821  53.2173  72.2470 0001343  85.5931 274.5215 15.08836490 77943,6917.891,95.438,540.685,538.827,0.0
53821.0,STARLINK-4752,PAYLOAD,2024-02-06 09:12:12,15.08838197,0.0001366,53.2173,71.0576,85.9736,274.1412,1.1597e-05,-1.03e-06,0.0,0 STARLINK-4752,1 53821U 22114D   24037.38347356 -.00000103  00000-0  11597-4 0  9996,2 53821  53.2173  71.0576 0001366  85.9736 274.1412 15.08838197 78525,6917.886,95.438,540.696,538.806,0.0
53821.0,STARLINK-4752,PAYLOAD,2024-02-07 09:02:59,15.08836307,0.0001386,53.2176,66.5986,88.2612,271.8539,7.2265e-06,-1.73e-06,0.0,0 STARLINK-4752,1 53821U 22114D   24038.37707654 -.00000173  00000-0  72265-5 0  9994,2 53821  53.2176  66.5986 0001386  88.2612 271.8539 15.08836307 78135,6917.892,95.438,540.715,538.798,0.0
53821.0,STARLINK-4752,PAYLOAD,2024-02-07 18:35:18,15.08835357,0.0001385,53.2175,64.8145,88.6726,271.4425,-5.2679e-06,-3.72e-06,0.0,0 STARLINK-4752,1 53821U 22114D   24038.77451839 -.00000372  00000-0 -52679-5 0  9998,2 53821  53.2175  64.8145 0001385  88.6726 271.4425 15.08835357 78731,6917.895,95.438,540.718,538.801,0.0
53821.0,STARLINK-4752,PAYLOAD,2024-02-08 10:29:09,15.08836694,0.0001372,53.2173,61.8404,91.1863,268.9286,-2.3447e-06,-3.25e-06,0.0,0 STARLINK-4752,1 53821U 22114D   24039.43691892 -.00000325  00000-0 -23447-5 0  9996,2 53821  53.2173  61.8404 0001372  91.1863 268.9286 15.08836694 78293,6917.89,95.438,540.705,538.806,0.0
53821.0,STARLINK-4752,PAYLOAD,2024-02-09 10:19:56,15.08837527,0.0001375,53.2173,57.3798,91.1426,268.9724,1.7031e-05,-1.7e-07,0.0,0 STARLINK-4752,1 53821U 22114D   24040.43051966 -.00000017  00000-0  17031-4 0  9998,2 53821  53.2173  57.3798 0001375  91.1426 268.9724 15.08837527 78986,6917.888,95.438,540.704,538.802,0.0
53821.0,STARLINK-4752,PAYLOAD,2024-02-10 00:38:25,15.08835723,0.0001433,53.2178,54.7016,88.0391,272.0765,2.348e-05,8.6e-07,0.0,0 STARLINK-4752,1 53821U 22114D   24041.02668160  .00000086  00000-0  23480-4 0  9994,2 53821  53.2178  54.7016 0001433  88.0391 272.0765 15.08835723 78534,6917.893,95.438,540.75,538.767,0.0
53821.0,STARLINK-4752,PAYLOAD,2024-02-10 06:59:57,15.08839167,0.0001419,53.2176,53.5135,87.8022,272.3133,2.8012e-05,1.58e-06,0.0,0 STARLINK-4752,1 53821U 22114D   24041.29163947  .00000158  00000-0  28012-4 0  9992,2 53821  53.2176  53.5135 0001419  87.8022 272.3133 15.08839167 79116,6917.883,95.438,540.73,538.766,0.0
53821.0,STARLINK-4752,PAYLOAD,2024-02-11 10:01:31,15.08832361,0.0001317,53.2182,48.4602,95.4757,264.6386,-5.4e-05,-1.147e-05,0.0,0 STARLINK-4752,1 53821U 22114D   24042.41772675 -.00001147  00000-0 -54000-4 0  9998,2 53821  53.2182  48.4602 0001317  95.4757 264.6386 15.08832361 78743,6917.904,95.438,540.68,538.858,0.0
53821.0,STARLINK-4752,PAYLOAD,2024-02-12 03:30:47,15.08822603,0.0001426,53.2185,45.1882,92.0309,268.0847,-0.00013652,-2.459e-05,0.0,0 STARLINK-4752,1 53821U 22114D   24043.14638255 -.00002459  00000-0 -13652-3 0  9998,2 53821  53.2185  45.1882 0001426  92.0309 268.0847 15.08822603 78857,6917.934,95.439,540.785,538.812,0.0
53821.0,STARLINK-4752,PAYLOAD,2024-02-12 06:41:33,15.08823711,0.0001528,53.2189,44.5938,88.0798,272.0369,-0.00012155,-2.221e-05,0.0,0 STARLINK-4752,1 53821U 22114D   24043.27886313 -.00002221  00000-0 -12155-3 0  9996,2 53821  53.2189  44.5938 0001528  88.0798 272.0369 15.08823711 79414,6917.93,95.439,540.852,538.738,0.0
